{
  "type": "FeatureCollection",
  "features": [
    {
      "type": "Feature",
      "properties": {
        "lab_id": "02KLNF001",
        "name": "Kleinfelder Laboratory - Irving",
        "area": "KLEINFELDER ENGINEERING",
        "address": "7805 Mesquite Bend Dr # 100",
        "city": "Irving",
        "state": "TX",
        "zip": 75063,
        "contact": "Liz Mang",
        "email": "emang@kleinfelder.com",
        "expiration": "2024-11-30T08:00:00.000Z"
      },
      "geometry": {
        "type": "Point",
        "coordinates": [
          -96.99148799999999,
          32.914652
        ]
      }
    },
    {
      "type": "Feature",
      "properties": {
        "lab_id": "90AEC002",
        "name": "AECOM",
        "area": "4508 N IH 35",
        "address": "Austin, TX",
        "city": "Austin",
        "state": "TX",
        "zip": 78751,
        "contact": "Cathey Galbreath",
        "email": "cathey.galbreath@aecom.com",
        "expiration": ""
      },
      "geometry": {
        "type": "Point",
        "coordinates": [
          -97.725376,
          30.3055711
        ]
      }
    },
    {
      "type": "Feature",
      "properties": {
        "lab_id": "90A&A001",
        "name": "Arias & Associates Inc. - San Antonio",
        "area": "ARIAS & ASSOCIATES",
        "address": "142 Chula Vista",
        "city": "San Antonio",
        "state": "TX",
        "zip": 78232,
        "contact": "Alex Salcedo",
        "email": "asalcedo@ariasinc.com",
        "expiration": "2026-12-08T08:00:00.000Z"
      },
      "geometry": {
        "type": "Point",
        "coordinates": [
          -98.4765334,
          29.5903505
        ]
      }
    },
    {
      "type": "Feature",
      "properties": {
        "lab_id": "90A&A002",
        "name": "Arias & Associates, Inc. - Austin",
        "area": "ARIAS & ASSOCIATES",
        "address": "13581 Ponds Springs Rd. Suite 210",
        "city": "Austin",
        "state": "TX",
        "zip": 78729,
        "contact": "John S. Landwemeyer",
        "email": "jlandwermeyer@ariasinc.com",
        "expiration": "2025-04-08T07:00:00.000Z"
      },
      "geometry": {
        "type": "Point",
        "coordinates": [
          -97.78856739999999,
          30.4549699
        ]
      }
    },
    {
      "type": "Feature",
      "properties": {
        "lab_id": "90ABC123",
        "name": "Test Lab, Some City, TX",
        "area": "DUMMY LAB INC.",
        "address": "123 Jedi St.",
        "city": "Tattooine",
        "state": "TX",
        "zip": 71234,
        "contact": "Amit Bhasin",
        "email": "ab.utexas@gmail.com",
        "expiration": "2025-02-01T08:00:00.000Z"
      },
      "geometry": {
        "type": "Point",
        "coordinates": [
          -99.9018131,
          31.9685988
        ]
      }
    },
    {
      "type": "Feature",
      "properties": {
        "lab_id": "90AG&FIELD",
        "name": "Aguirre & Fields - FTW",
        "area": "AGUIRRE & FIELDS",
        "address": "1701 River Run Suite 410",
        "city": "Fort Worth",
        "state": "TX",
        "zip": 76107,
        "contact": "Mike Looney",
        "email": "mike.looney@aguirre-fields.com",
        "expiration": "2024-10-10T07:00:00.000Z"
      },
      "geometry": {
        "type": "Point",
        "coordinates": [
          -97.3596791,
          32.7270724
        ]
      }
    },
    {
      "type": "Feature",
      "properties": {
        "lab_id": "90AGF001",
        "name": "Aguirre & Fields - Converse",
        "area": "AGUIRRE & FIELDS",
        "address": "12658 I-10 Frontage Road",
        "city": "Converse",
        "state": "TX",
        "zip": 78109,
        "contact": "Michael Steward",
        "email": "michael.steward@aguirre-fields.com",
        "expiration": "2025-08-23T07:00:00.000Z"
      },
      "geometry": {
        "type": "Point",
        "coordinates": [
          -98.234202,
          29.480561
        ]
      }
    },
    {
      "type": "Feature",
      "properties": {
        "lab_id": "90ALG001",
        "name": "Alliance Geotechnical Group - Dallas",
        "area": "ALLIANCE GEOTECHNICAL GROUP",
        "address": "3228 Halifax Street",
        "city": "Dallas",
        "state": "TX",
        "zip": 75247,
        "contact": "John Carson",
        "email": "jcarson@aggengr.com",
        "expiration": "2026-04-25T07:00:00.000Z"
      },
      "geometry": {
        "type": "Point",
        "coordinates": [
          -96.8710209,
          32.811658
        ]
      }
    },
    {
      "type": "Feature",
      "properties": {
        "lab_id": "90ALG002",
        "name": "Alliance Geotechnical Group - Fort Worth",
        "area": "ALLIANCE GEOTECHNICAL GROUP",
        "address": "3020 Wichita Ct",
        "city": "Fort Worth",
        "state": "TX",
        "zip": 76140,
        "contact": "Robert Nance",
        "email": "rnance@aggengr.com",
        "expiration": "2026-08-31T07:00:00.000Z"
      },
      "geometry": {
        "type": "Point",
        "coordinates": [
          -97.2879497,
          32.6579943
        ]
      }
    },
    {
      "type": "Feature",
      "properties": {
        "lab_id": "90ALG003",
        "name": "Alliance Geotechnical Group - Longview",
        "area": "ALLIANCE GEOTECHNICAL GROUP",
        "address": "317 W. Harrison Rd.",
        "city": "Longview",
        "state": "TX",
        "zip": 75604,
        "contact": "Terry Oswald",
        "email": "toswald@aggengr.com",
        "expiration": "2025-07-21T07:00:00.000Z"
      },
      "geometry": {
        "type": "Point",
        "coordinates": [
          -94.79844,
          32.4975486
        ]
      }
    },
    {
      "type": "Feature",
      "properties": {
        "lab_id": "90ALG004",
        "name": "Alliance Geotechnical Group - Houston",
        "area": "ALLIANCE GEOTECHNICAL GROUP",
        "address": "9101 Jameel Rd, Suite 130",
        "city": "Houston",
        "state": "TX",
        "zip": 77040,
        "contact": "Stacy Walle",
        "email": "swalle@aggengr.com",
        "expiration": "2026-01-18T08:00:00.000Z"
      },
      "geometry": {
        "type": "Point",
        "coordinates": [
          -95.529076,
          29.856835
        ]
      }
    },
    {
      "type": "Feature",
      "properties": {
        "lab_id": "90ATI002",
        "name": "Alpha Testing Inc.- FTW",
        "area": "ALPHA TESTING, INC.",
        "address": "5058 Brush Creek Road",
        "city": "Fort Worth",
        "state": "TX",
        "zip": 76119,
        "contact": "Robert Begole",
        "email": "rbegole@alphatesting.com",
        "expiration": "2025-12-12T08:00:00.000Z"
      },
      "geometry": {
        "type": "Point",
        "coordinates": [
          -97.24729190000001,
          32.6957124
        ]
      }
    },
    {
      "type": "Feature",
      "properties": {
        "lab_id": "90ATK001",
        "name": "Atkins - Houston",
        "area": "ATKINS",
        "address": "920 Memorial City Way Suite 400",
        "city": "Houston",
        "state": "TX",
        "zip": 77024,
        "contact": "John Watson",
        "email": "John.watson2@atkinsrealis.com",
        "expiration": "2024-10-18T07:00:00.000Z"
      },
      "geometry": {
        "type": "Point",
        "coordinates": [
          -95.53556359999999,
          29.7817447
        ]
      }
    },
    {
      "type": "Feature",
      "properties": {
        "lab_id": "90ATLS01",
        "name": "Atlas - San Antonio",
        "area": "ATLAS TECHNICAL CONSULTANTS",
        "address": "1211 Arion Parkway,Suite 100",
        "city": "San Antonio",
        "state": "TX",
        "zip": 78233,
        "contact": "Brett Haggerty",
        "email": "brett.haggerty@oneatlas.com",
        "expiration": "2027-01-26T08:00:00.000Z"
      },
      "geometry": {
        "type": "Point",
        "coordinates": [
          -98.4752437,
          29.5481959
        ]
      }
    },
    {
      "type": "Feature",
      "properties": {
        "lab_id": "90ATLS02",
        "name": "Atlas - Lubbock",
        "area": "ATLAS TECHNICAL CONSULTANTS",
        "address": "12804 County Road 2500",
        "city": "Lubbock",
        "state": "TX",
        "zip": 79404,
        "contact": "Cole Hutson",
        "email": "cole.hutson@oneatlas.com",
        "expiration": "2025-05-16T07:00:00.000Z"
      },
      "geometry": {
        "type": "Point",
        "coordinates": [
          -101.8189221,
          33.4778296
        ]
      }
    },
    {
      "type": "Feature",
      "properties": {
        "lab_id": "90ATLS03",
        "name": "Atlas Laboratory - Beaumont",
        "area": "ATLAS TECHNICAL CONSULTANTS",
        "address": "1150 N 13th St",
        "city": "Beaumont",
        "state": "TX",
        "zip": 77702,
        "contact": "Jeffrey Buxton",
        "email": "jeffrey.buxton@oneatlas.com",
        "expiration": "2024-05-21T07:00:00.000Z"
      },
      "geometry": {
        "type": "Point",
        "coordinates": [
          -94.1323265,
          30.0827497
        ]
      }
    },
    {
      "type": "Feature",
      "properties": {
        "lab_id": "90ATLS04",
        "name": "Atlas Laboratory - El Paso",
        "area": "ATLAS TECHNICAL CONSULTANTS",
        "address": "5950 Luckett Court Bldg B",
        "city": "El Paso",
        "state": "TX",
        "zip": 79932,
        "contact": "Melodie Jimenez",
        "email": "melodie.jimenez@oneatlas.com",
        "expiration": "2024-11-08T08:00:00.000Z"
      },
      "geometry": {
        "type": "Point",
        "coordinates": [
          -106.5926435,
          31.8708991
        ]
      }
    },
    {
      "type": "Feature",
      "properties": {
        "lab_id": "90ATLS05",
        "name": "Atlas Technical Consultants and?Laboratory -?FTW",
        "area": "ATLAS TECHNICAL CONSULTANTS",
        "address": "2450 Austin Rd.",
        "city": "Richland Hills TX",
        "state": "TX",
        "zip": 76118,
        "contact": "Jaosn Bartholomew",
        "email": "jason.bartholomew@oneatlas.com",
        "expiration": "2027-02-13T08:00:00.000Z"
      },
      "geometry": {
        "type": "Point",
        "coordinates": [
          -97.2295654,
          32.7934984
        ]
      }
    },
    {
      "type": "Feature",
      "properties": {
        "lab_id": "90ATLS06",
        "name": "Atlas Technical Consultants - Houston",
        "area": "ATLAS TECHNICAL CONSULTANTS",
        "address": "2501 Central Parkway, Suite A4",
        "city": "Houston",
        "state": "TX",
        "zip": 77092,
        "contact": "Dennis Turner",
        "email": "dennis.turner@oneatlas.com",
        "expiration": "2025-08-30T07:00:00.000Z"
      },
      "geometry": {
        "type": "Point",
        "coordinates": [
          -95.4658575,
          29.8108997
        ]
      }
    },
    {
      "type": "Feature",
      "properties": {
        "lab_id": "90ATLS07",
        "name": "Atlas Laboratory - Midland",
        "area": "ATLAS TECHNICAL CONSULTANTS",
        "address": "6413 N State Hwy 349, Suite L",
        "city": "Midland",
        "state": "TX",
        "zip": 79705,
        "contact": "Corey Ritchie",
        "email": "corey.ritchie@oneatlas.com",
        "expiration": "2024-07-13T07:00:00.000Z"
      },
      "geometry": {
        "type": "Point",
        "coordinates": [
          -102.0904228,
          32.0715955
        ]
      }
    }
  ]
}